ONEWEB-0326             
1 49195U 21083K   22206.84720441  .00000034  00000+0  53769-4 0  9994
2 49195  87.9110 258.0388 0001587  75.9466 284.1843 13.18685552 42547
ONEWEB-0327             
1 49196U 21083L   22206.60407685  .00000041  00000+0  71998-4 0  9993
2 49196  87.9122 258.0631 0001431  79.4395 280.6899 13.18681788 43810
ONEWEB-0328             
1 49197U 21083M   22206.60528404 -.00000055  00000+0 -18469-3 0  9997
2 49197  87.8946 242.8323 0002057  88.0897 272.0468 13.13472145 44156
ONEWEB-0331             
1 49198U 21083N   22206.84255894  .00000036  00000+0  57407-4 0  9997
2 49198  87.9121 258.0593 0001814  85.3228 274.8111 13.18687253 42559
ONEWEB-0333             
1 49199U 21083P   22206.82934952 -.00000236  00000+0 -68013-3 0  9993
2 49199  87.8945 242.7886 0002347  99.8381 260.3013 13.13469606 45481
ONEWEB-0334             
1 49200U 21083Q   22206.91667824  .00066246  00000+0  67715-2 0  9995
2 49200  87.2030 216.7699 0003923 136.5445 181.8175 14.90241237  1300
ONEWEB-0335             
1 49201U 21083R   22206.82486221 -.00000270  00000+0 -77514-3 0  9992
2 49201  87.8935 242.7880 0001991  83.9693 276.1663 13.13468073 44204
ONEWEB-0336             
1 49202U 21083S   22206.79346276 -.00000338  00000+0 -96000-3 0  9990
2 49202  87.8945 242.7904 0002203  95.1549 264.9831 13.13472322 44197
ONEWEB-0337             
1 49203U 21083T   22206.81590332 -.00002872  00000+0 -79049-2 0  9996
2 49203  87.8939 242.7901 0002673  86.6891 273.4544 13.13451696 44191
ONEWEB-0338             
1 49204U 21083U   22206.91667824  .00069032  00000+0  70519-2 0  9991
2 49204  87.2089 217.0050 0002461 152.8138  69.3452 14.90253634  1301
ONEWEB-0339             
1 49205U 21083V   22206.58289177 -.00000236  00000+0 -68168-3 0  9997
2 49205  87.8946 242.8327 0002526  91.9004 268.2415 13.13466598 44147
ONEWEB-0340             
1 49206U 21083W   22206.60253369 -.00000015  00000+0 -69638-4 0  9994
2 49206  87.9113 258.1009 0002053  90.4820 269.6548 13.18685234 43772
ONEWEB-0341             
1 49207U 21083X   22206.61028594 -.00000005  00000+0 -45336-4 0  9994
2 49207  87.9133 258.0218 0003029  80.1457 280.0016 13.18687162 42501
ONEWEB-0342             
1 49208U 21083Y   22206.91667824  .00066751  00000+0  68189-2 0  9990
2 49208  87.2052 216.8511 0002159 145.5771 246.6010 14.90266723  1303
ONEWEB-0343             
1 49209U 21083Z   22206.83482074  .00000010  00000+0 -69171-5 0  9996
2 49209  87.9124 258.0189 0003401  86.2682 273.8839 13.18679481 43870
ONEWEB-0344             
1 49210U 21083AA  22206.85623682  .00000354  00000+0  93347-3 0  9992
2 49210  87.8945 242.7823 0002052  91.3538 268.7826 13.13469293 44182
ONEWEB-0345             
1 49211U 21083AB  22206.79797425  .00000138  00000+0  34332-3 0  9992
2 49211  87.8933 242.7864 0002121  70.6009 289.5349 13.13470169 44180
ONEWEB-0346             
1 49212U 21083AC  22206.84099542  .00000010  00000+0 -74430-5 0  9999
2 49212  87.9121 258.0095 0001654  79.9458 280.1860 13.18688732 43813
ONEWEB-0348             
1 49213U 21083AD  22206.91667824  .00066001  00000+0  67434-2 0  9996
2 49213  87.2077 216.9508 0003010 140.7122 207.4883 14.90262994  1306
ONEWEB-0350             
1 49214U 21083AE  22206.65459174 -.00000161  00000+0 -47690-3 0  9995
2 49214  87.8941 242.8359 0002462  71.2552 288.8844 13.13466340 44199
ONEWEB-0351             
1 49215U 21083AF  22206.91667824  .00069623  00000+0  71130-2 0  9999
2 49215  87.2007 216.6863 0003438 130.9432 339.6659 14.90244595  1307
ONEWEB-0352             
1 49216U 21083AG  22206.78899049  .00000513  00000+0  13689-2 0  9999
2 49216  87.8941 242.7927 0001700 105.4388 254.6929 13.13466828 44301
ONEWEB-0354             
1 49217U 21083AH  22206.91667824  .00066101  00000+0  67543-2 0  9992
2 49217  87.2061 216.8783 0002594 122.6800 243.4168 14.90259378  1303
ONEWEB-0355             
1 49218U 21083AJ  22206.82039994 -.00000338  00000+0 -96076-3 0  9990
2 49218  87.8948 242.7881 0002455  91.3127 268.8283 13.13468053 44189
ONEWEB-0357             
1 49219U 21083AK  22206.91667824  .00066622  00000+0  68060-2 0  9997
2 49219  87.2057 216.8697 0002453 155.7397 149.8444 14.90265393  1306
ONEWEB-0332             
1 49279U 21090A   22206.91667824  .00047741  00000+0  12812+0 0  9993
2 49279  87.9023 212.4048 0002539 102.7039  54.1044 13.14475337  1304
ONEWEB-0347             
1 49280U 21090B   22206.91667824  .00054862  00000+0  20443-1 0  9998
2 49280  87.6925 206.5219 0004288  51.6432 311.0866 14.31640372  1311
ONEWEB-0349             
1 49281U 21090C   22206.91667824  .00000013  00000+0  00000+0 0  9993
2 49281  87.9753 197.3631 0003800  52.5572 269.7624 13.36374835  1305
ONEWEB-0353             
1 49282U 21090D   22206.91667824  .00048406  00000+0  12990+0 0  9993
2 49282  87.9074 212.4393 0002256 103.5217  93.2740 13.14474127  1303
ONEWEB-0356             
1 49283U 21090E   22206.91667824  .00000014  00000+0  00000+0 0  9996
2 49283  87.9642 197.3395 0005938  51.8921  74.9921 13.38461975  1305
ONEWEB-0358             
1 49284U 21090F   22206.91667824 -.01676797  00000+0 -29993+0 0  9999
2 49284  87.5794 199.1854 0004570  72.5637 153.8500 14.70492446  1309
ONEWEB-0359             
1 49285U 21090G   22206.91667824 -.01673023  00000+0 -30076+0 0  9993
2 49285  87.5831 199.2091 0003492  65.9176 237.8844 14.70273266  1303
ONEWEB-0360             
1 49286U 21090H   22206.91667824  .00000014  00000+0  00000+0 0  9999
2 49286  87.8861 197.3218 0008953  61.3396  27.0560 13.41917573  1308
ONEWEB-0361             
1 49287U 21090J   22206.91667824  .00000014  00000+0  00000+0 0  9990
2 49287  87.9664 197.3235 0003109  48.7345 340.9220 13.38711715  1307
ONEWEB-0362             
1 49288U 21090K   22206.91667824  .00043203  00000+0  10741+0 0  9991
2 49288  87.9095 227.5916 0001989 103.7856 184.9808 13.19701382  1307
ONEWEB-0363             
1 49289U 21090L   22206.91667824  .00000014  00000+0  00000+0 0  9992
2 49289  87.9639 197.3239 0005278  53.8654 106.2738 13.40662195  1301
ONEWEB-0364             
1 49290U 21090M   22206.91667824  .00050757  00000+0  20392-1 0  9991
2 49290  87.6863 206.7051 0002725  63.5103  47.3582 14.27837348  1309
ONEWEB-0365             
1 49291U 21090N   22206.91667824  .00044076  00000+0  10957+0 0  9993
2 49291  87.9207 227.6350 0002223  89.9020 169.5231 13.19701579  1306
ONEWEB-0366             
1 49292U 21090P   22206.91667824  .00048529  00000+0  13023+0 0  9998
2 49292  87.9045 212.4219 0001974 102.1928 114.5828 13.14473558  1300
ONEWEB-0367             
1 49293U 21090Q   22206.91667824  .00000014  00000+0  00000+0 0  9997
2 49293  87.9620 197.3584 0005157  63.5871 242.0523 13.38823621  1305
ONEWEB-0368             
1 49294U 21090R   22206.91667824  .00057465  00000+0  23087-1 0  9992
2 49294  87.6889 206.6761 0004604  68.0746 169.6629 14.27785573  1301
ONEWEB-0369             
1 49295U 21090S   22206.91667824  .00043564  00000+0  10830+0 0  9998
2 49295  87.9214 227.5986 0002072 100.6246 173.4831 13.19702291  1307
ONEWEB-0370             
1 49296U 21090T   22206.91667824  .00000014  00000+0  00000+0 0  9990
2 49296  87.9608 197.3274 0003805  67.5942 203.6385 13.41177084  1309
ONEWEB-0371             
1 49297U 21090U   22206.91667824  .00044809  00000+0  11138+0 0  9995
2 49297  87.9209 227.5327 0002123  89.1526 155.5250 13.19703520  1303
ONEWEB-0372             
1 49298U 21090V   22206.91667824  .00000014  00000+0  00000+0 0  9992
2 49298  87.9674 197.3242 0005611  66.5446 179.6227 13.39075289  1302
ONEWEB-0373             
1 49299U 21090W   22206.91667824  .00056284  00000+0  20964-1 0  9996
2 49299  87.6885 206.4683 0007278  68.2596 145.0123 14.31641722  1307
ONEWEB-0374             
1 49300U 21090X   22206.91667824  .00048531  00000+0  13023+0 0  9991
2 49300  87.9073 212.4377 0001958  98.3133 133.5011 13.14476250  1309
ONEWEB-0375             
1 49301U 21090Y   22206.91667824 -.01697813  00000+0 -32589+0 0  9996
2 49301  87.5840 199.1125 0004595  53.8078 138.9840 14.67441222  1303
ONEWEB-0376             
1 49302U 21090Z   22206.91667824  .00044413  00000+0  11040+0 0  9995
2 49302  87.9210 227.6125 0002222  99.3622 152.6650 13.19703191  1305
ONEWEB-0377             
1 49303U 21090AA  22206.91667824 -.01695278  00000+0 -31852+0 0  9993
2 49303  87.5806 199.1707 0003089  72.9325 208.2473 14.68388299  1305
ONEWEB-0378             
1 49304U 21090AB  22206.91667824  .00000013  00000+0  00000+0 0  9999
2 49304  87.9490 197.3515 0002487  84.4993  53.5319 13.26794127  1300
ONEWEB-0379             
1 49305U 21090AC  22206.91667824  .00047106  00000+0  12642+0 0  9999
2 49305  87.9061 212.4201 0002091  96.1165 210.6365 13.14478900  1300
ONEWEB-0380             
1 49306U 21090AD  22206.91667824  .00043794  00000+0  10887+0 0  9998
2 49306  87.9209 227.6187 0002274  86.8542 179.9820 13.19702707  1307
ONEWEB-0381             
1 49307U 21090AE  22206.91667824  .00000014  00000+0  00000+0 0  9993
2 49307  87.9604 197.3449 0003193  54.6152  73.5864 13.39346883  1300
ONEWEB-0382             
1 49308U 21090AF  22206.91667824  .00000014  00000+0  00000+0 0  9994
2 49308  87.9583 197.3353 0002841  59.7528  56.2641 13.39472719  1302
ONEWEB-0383             
1 49309U 21090AG  22206.91667824  .00042538  00000+0  11420+0 0  9990
2 49309  87.9051 212.3618 0001893  99.3035 222.6994 13.14487727  1302
ONEWEB-0384             
1 49310U 21090AH  22206.91667824  .00000014  00000+0  00000+0 0  9997
2 49310  87.9725 197.3414 0003462  42.0088 245.3918 13.37246767  1305
ONEWEB-0385             
1 49311U 21090AJ  22206.91667824  .00000013  00000+0  00000+0 0  9997
2 49311  87.9822 197.3139 0003134  65.3704 156.4303 13.35138685  1304
ONEWEB-0386             
1 49312U 21090AK  22206.91667824  .00000014  00000+0  00000+0 0  9999
2 49312  87.9656 197.3315 0001352  73.4810 176.6831 13.38827526  1306
